{
  "norad_id": 56218,
  "name": "KEPLER-21",
  "history": [
    {
      "epoch": "2026-03-28T17:52:16.541760Z",
      "apogee_km": 341.47574169554537,
      "perigee_km": 339.83098181498826,
      "latitude_deg": -8.752748650664734e-05,
      "longitude_deg": -91.72249535863814,
      "height_km": 343.21272907828995,
      "semi_major_axis_km": 6718.7903617552665,
      "eccentricity": 0.0001224,
      "inclination_deg": 97.2947,
      "raan_deg": 2.5071,
      "arg_perigee_deg": 42.2366,
      "mean_anomaly_deg": 317.8993,
      "mean_motion_rev_day": 15.76398911
    },
    {
      "epoch": "2026-03-30T04:54:26.949312Z",
      "apogee_km": 340.3268825055993,
      "perigee_km": 339.0478087501915,
      "latitude_deg": 6.411804287814412e-05,
      "longitude_deg": 102.8325345791547,
      "height_km": 342.43796968093886,
      "semi_major_axis_km": 6717.824345627895,
      "eccentricity": 9.52e-05,
      "inclination_deg": 97.2948,
      "raan_deg": 4.0444,
      "arg_perigee_deg": 49.1567,
      "mean_anomaly_deg": 310.9782,
      "mean_motion_rev_day": 15.7673895
    }
  ]
}